GSAT0209 (GALILEO 12)   
1 41174U 15079A   26087.09015773  .00000041  00000+0  00000+0 0  9997
2 41174  55.7756 103.4845 0005363 324.7749  35.2418  1.70474268 63395
